IRIDIUM 155             
1 43573U 18061E   22136.76248538  .00000070  00000+0  18076-4 0  9997
2 43573  86.3933 320.3922 0002045  99.0308 261.1119 14.34218221199443
IRIDIUM 154             
1 43574U 18061F   22136.74346208  .00000048  00000+0  99970-5 0  9997
2 43574  86.3938 320.4623 0002056  82.2560 277.8869 14.34217182199490
IRIDIUM 163             
1 43575U 18061G   22136.79417666  .00000061  00000+0  14720-4 0  9994
2 43575  86.3935 320.4022 0002557  87.3680 272.7809 14.34219969199477
IRIDIUM 156             
1 43576U 18061H   22136.76882412  .00000057  00000+0  13466-4 0  9998
2 43576  86.3936 320.4182 0002392  94.9328 265.2141 14.34219747199465
IRIDIUM 164             
1 43577U 18061J   22136.74978790  .00000075  00000+0  19723-4 0  9994
2 43577  86.3936 320.4437 0002206  83.1162 277.0284 14.34218044199502
IRIDIUM 159             
1 43578U 18061K   22136.78783833  .00000086  00000+0  23732-4 0  9998
2 43578  86.3935 320.3959 0002118  83.8397 276.3040 14.34217989199474
IRIDIUM 180             
1 43922U 19002A   22136.85714022  .00000297  00000+0  98944-4 0  9990
2 43922  86.3971 257.1947 0002353  78.3129 281.8331 14.34216387175091
IRIDIUM 176             
1 43923U 19002B   22137.06386600  .00001089  00000+0  16881-3 0  9991
2 43923  86.6106 257.1429 0002403  97.1386 263.0105 14.72251726179712
IRIDIUM 168             
1 43924U 19002C   22137.06009212  .00000316  00000+0  10580-3 0  9995
2 43924  86.3975 257.1451 0002117  87.7472 272.3966 14.34218020175107
IRIDIUM 173             
1 43925U 19002D   22136.62877092  .00000013  00000+0 -23783-5 0  9992
2 43925  86.3972 257.2749 0002209  90.0383 270.1066 14.34213508175020
IRIDIUM 169             
1 43926U 19002E   22136.65490567  .00000324  00000+0  99271-4 0  9992
2 43926  86.4189 288.8817 0003818 189.4579 170.6548 14.38608168175646
IRIDIUM 172             
1 43927U 19002F   22137.04107581  .00000320  00000+0  10710-3 0  9994
2 43927  86.3971 257.1062 0002217  87.1661 272.9788 14.34216698175094
IRIDIUM 175             
1 43928U 19002G   22136.58188360  .00000970  00000+0  14995-3 0  9997
2 43928  86.6110 257.1736 0002246  89.7807 270.3667 14.72249743179634
IRIDIUM 171             
1 43929U 19002H   22136.60342759  .00000270  00000+0  89196-4 0  9994
2 43929  86.3980 257.4294 0002102  88.6625 271.4811 14.34216911175027
IRIDIUM 170             
1 43930U 19002J   22137.07009118  .00001092  00000+0  16935-3 0  9990
2 43930  86.6107 257.1455 0002096  94.2283 265.9174 14.72253878179720
IRIDIUM 167             
1 43931U 19002K   22136.59709327  .00000270  00000+0  89285-4 0  9992
2 43931  86.3972 257.3009 0002212  81.7182 278.4264 14.34216476175023
